{
  "type": "FeatureCollection",
  "features": [
    {
      "type": "Feature",
      "geometry": { "type": "Point", "coordinates": [8.3092, 60.8706] },
      "properties": { "navn": "Fondsbu", "type": "Betjent", "høyde_moh": 1005 }
    },
    {
      "type": "Feature",
      "geometry": { "type": "Point", "coordinates": [7.4771, 60.5986] },
      "properties": { "navn": "Turtagrø", "type": "Betjent", "høyde_moh": 884 }
    },
    {
      "type": "Feature",
      "geometry": { "type": "Point", "coordinates": [15.4162, 61.8942] },
      "properties": { "navn": "Rondvassbu", "type": "Betjent", "høyde_moh": 1166 }
    },
    {
      "type": "Feature",
      "geometry": { "type": "Point", "coordinates": [20.3831, 69.5264] },
      "properties": { "navn": "Dividalen", "type": "Selvbetjent", "høyde_moh": 390 }
    },
    {
      "type": "Feature",
      "geometry": { "type": "Point", "coordinates": [13.1753, 62.0994] },
      "properties": { "navn": "Spiterstulen", "type": "Betjent", "høyde_moh": 1100 }
    },
    {
      "type": "Feature",
      "geometry": { "type": "Point", "coordinates": [8.6203, 62.1564] },
      "properties": { "navn": "Åmotan", "type": "Selvbetjent", "høyde_moh": 612 }
    },
    {
      "type": "Feature",
      "geometry": { "type": "Point", "coordinates": [9.5408, 61.5842] },
      "properties": { "navn": "Gjendebu", "type": "Betjent", "høyde_moh": 989 }
    },
    {
      "type": "Feature",
      "geometry": { "type": "Point", "coordinates": [6.9983, 60.1369] },
      "properties": { "navn": "Vatnahalsen", "type": "Betjent", "høyde_moh": 823 }
    },
    {
      "type": "Feature",
      "geometry": { "type": "Point", "coordinates": [16.9432, 68.4381] },
      "properties": { "navn": "Kvikkjokk fjällstation", "type": "Betjent", "høyde_moh": 320 }
    },
    {
      "type": "Feature",
      "geometry": { "type": "Point", "coordinates": [14.2831, 63.4219] },
      "properties": { "navn": "Blåhammaren", "type": "Betjent", "høyde_moh": 1075 }
    },
    {
      "type": "Feature",
      "geometry": { "type": "Point", "coordinates": [10.5311, 60.7294] },
      "properties": { "navn": "Sikkilsdalen", "type": "Betjent", "høyde_moh": 904 }
    },
    {
      "type": "Feature",
      "geometry": { "type": "Point", "coordinates": [7.9614, 60.3172] },
      "properties": { "navn": "Finse 1222", "type": "Betjent", "høyde_moh": 1222 }
    }
  ]
}
