{"type":"FeatureCollection","features":[{"type":"Feature","geometry":{"type":"Polygon","coordinates":[[[6.8,59.8],[8.5,59.8],[8.5,60.5],[6.8,60.5],[6.8,59.8]]]},"properties":{"navn":"Hardangervidda","areal_km2":8604}},{"type":"Feature","geometry":{"type":"Polygon","coordinates":[[[7.8,61.2],[9,61.2],[9,62],[7.8,62],[7.8,61.2]]]},"properties":{"navn":"Jotunheimen","areal_km2":3422}},{"type":"Feature","geometry":{"type":"Polygon","coordinates":[[[6.2,61.4],[7.5,61.4],[7.5,62],[6.2,62],[6.2,61.4]]]},"properties":{"navn":"Jostedalsbreen","areal_km2":1310}},{"type":"Feature","geometry":{"type":"Polygon","coordinates":[[[7.2,61.6],[8,61.6],[8,62.2],[7.2,62.2],[7.2,61.6]]]},"properties":{"navn":"Breheimen","areal_km2":1789}},{"type":"Feature","geometry":{"type":"Polygon","coordinates":[[[7.6,61.8],[8.6,61.8],[8.6,62.5],[7.6,62.5],[7.6,61.8]]]},"properties":{"navn":"Reinheimen","areal_km2":1969}},{"type":"Feature","geometry":{"type":"Polygon","coordinates":[[[8.5,62],[10,62],[10,62.7],[8.5,62.7],[8.5,62]]]},"properties":{"navn":"Dovrefjell-Sunndalsfjella","areal_km2":4367}},{"type":"Feature","geometry":{"type":"Polygon","coordinates":[[[9.5,61.8],[10.5,61.8],[10.5,62.4],[9.5,62.4],[9.5,61.8]]]},"properties":{"navn":"Rondane","areal_km2":963}},{"type":"Feature","geometry":{"type":"Polygon","coordinates":[[[10.7,62.2],[12,62.2],[12,62.8],[10.7,62.8],[10.7,62.2]]]},"properties":{"navn":"Forollhogna","areal_km2":1063}},{"type":"Feature","geometry":{"type":"Polygon","coordinates":[[[12.5,64.8],[14.5,64.8],[14.5,65.8],[12.5,65.8],[12.5,64.8]]]},"properties":{"navn":"Børgefjell","areal_km2":1447}},{"type":"Feature","geometry":{"type":"Polygon","coordinates":[[[12.2,65.3],[14,65.3],[14,66.5],[12.2,66.5],[12.2,65.3]]]},"properties":{"navn":"Blåfjella-Skjækerfjella","areal_km2":1933}},{"type":"Feature","geometry":{"type":"Polygon","coordinates":[[[12.8,66.1],[16,66.1],[16,67.2],[12.8,67.2],[12.8,66.1]]]},"properties":{"navn":"Saltfjellet-Svartisen","areal_km2":2102}},{"type":"Feature","geometry":{"type":"Polygon","coordinates":[[[14,65.1],[15.5,65.1],[15.5,65.8],[14,65.8],[14,65.1]]]},"properties":{"navn":"Lomsdal-Visten","areal_km2":1126}},{"type":"Feature","geometry":{"type":"Polygon","coordinates":[[[24,69.8],[26.5,69.8],[26.5,70.5],[24,70.5],[24,69.8]]]},"properties":{"navn":"Stabbursdalen","areal_km2":747}},{"type":"Feature","geometry":{"type":"Polygon","coordinates":[[[28.8,69],[30.5,69],[30.5,70],[28.8,70],[28.8,69]]]},"properties":{"navn":"Øvre Pasvik","areal_km2":119}},{"type":"Feature","geometry":{"type":"Polygon","coordinates":[[[27.5,70],[31.2,70],[31.2,70.8],[27.5,70.8],[27.5,70]]]},"properties":{"navn":"Varangerhalvøya","areal_km2":1810}},{"type":"Feature","geometry":{"type":"Polygon","coordinates":[[[20.5,69],[22.2,69],[22.2,70],[20.5,70],[20.5,69]]]},"properties":{"navn":"Reisa","areal_km2":803}},{"type":"Feature","geometry":{"type":"Polygon","coordinates":[[[17,69.2],[18.5,69.2],[18.5,69.8],[17,69.8],[17,69.2]]]},"properties":{"navn":"Ånderdalen","areal_km2":103}},{"type":"Feature","geometry":{"type":"Polygon","coordinates":[[[6.1,59.8],[6.6,59.8],[6.6,60.3],[6.1,60.3],[6.1,59.8]]]},"properties":{"navn":"Folgefonna","areal_km2":545}},{"type":"Feature","geometry":{"type":"Polygon","coordinates":[[[6.5,60.7],[7.2,60.7],[7.2,61.1],[6.5,61.1],[6.5,60.7]]]},"properties":{"navn":"Nærøyfjorden","areal_km2":598}},{"type":"Feature","geometry":{"type":"Polygon","coordinates":[[[7.7,60.5],[8.1,60.5],[8.1,60.8],[7.7,60.8],[7.7,60.5]]]},"properties":{"navn":"Hallingskarvet","areal_km2":450}},{"type":"Feature","geometry":{"type":"Polygon","coordinates":[[[10.2,62.8],[11.6,62.8],[11.6,63.5],[10.2,63.5],[10.2,62.8]]]},"properties":{"navn":"Trollheimen","areal_km2":1665}}]}