{"type":"FeatureCollection","features":[{"type":"Feature","geometry":{"type":"LineString","coordinates":[[8.16,61.47],[8.25,61.49],[8.35,61.5],[8.44,61.51]]},"properties":{"navn":"Besseggen","lengde_km":22}},{"type":"Feature","geometry":{"type":"LineString","coordinates":[[6.1,59],[6.12,59.02],[6.17,59.04],[6.19,59.04]]},"properties":{"navn":"Preikestolen","lengde_km":7.6}},{"type":"Feature","geometry":{"type":"LineString","coordinates":[[6.73,60.1],[6.74,60.13],[6.76,60.15],[6.73,60.17]]},"properties":{"navn":"Trolltunga","lengde_km":27}},{"type":"Feature","geometry":{"type":"LineString","coordinates":[[7.34,61.03],[7.29,60.95],[7.25,60.88],[7.2,60.83]]},"properties":{"navn":"Aurlandsdalen","lengde_km":20}},{"type":"Feature","geometry":{"type":"LineString","coordinates":[[6.58,59.03],[6.56,59.04],[6.53,59.04],[6.51,59.04]]},"properties":{"navn":"Kjerag","lengde_km":10}},{"type":"Feature","geometry":{"type":"LineString","coordinates":[[8.39,61.61],[8.38,61.63],[8.37,61.64],[8.35,61.64]]},"properties":{"navn":"Galdhøpiggen frå Spiterstulen","lengde_km":16}},{"type":"Feature","geometry":{"type":"LineString","coordinates":[[7.74,62.47],[7.72,62.49],[7.67,62.52],[7.65,62.53]]},"properties":{"navn":"Romsdalseggen","lengde_km":23}},{"type":"Feature","geometry":{"type":"LineString","coordinates":[[9.15,62.28],[9.18,62.3],[9.21,62.32],[9.23,62.33]]},"properties":{"navn":"Snøhetta frå Reinheim","lengde_km":14}},{"type":"Feature","geometry":{"type":"LineString","coordinates":[[7.05,60.1],[7.4,60.08],[7.75,60.1],[8.1,60.12]]},"properties":{"navn":"Hardangervidda vest-ost","lengde_km":90}},{"type":"Feature","geometry":{"type":"LineString","coordinates":[[13.15,68.08],[13.22,68.1],[13.3,68.1],[13.4,68.09]]},"properties":{"navn":"Kjerkfjorden-Nusfjord (Lofoten)","lengde_km":18}},{"type":"Feature","geometry":{"type":"LineString","coordinates":[[10.71,59.97],[10.7,59.99],[10.7,60.01],[10.71,60.03]]},"properties":{"navn":"Sognsvann-Ullevalseter","lengde_km":5}}]}